{"type": "FeatureCollection", "features": [ {"type": "Feature", "properties": {"norad_id": 66629, "name": "STARLINK-35956", "group": "last-30-days", "lat": -4.486280887585821, "lon": -166.7980955940775, "alt_km": 394.0277161209624, "timestamp": "2025-12-10T18:56:58.833944+00:00", "meta": {"OBJECT_NAME": "STARLINK-35956", "OBJECT_ID": "2025-271N", "EPOCH": "2025-12-10T12:00:02.998944", "MEAN_MOTION": 15.59684437, "ECCENTRICITY": 0.0001242, "INCLINATION": 53.1599, "RA_OF_ASC_NODE": 197.9794, "ARG_OF_PERICENTER": 109.0956, "MEAN_ANOMALY": 59.4348, "EPHEMERIS_TYPE": 0, "CLASSIFICATION_TYPE": "U", "NORAD_CAT_ID": 66629, "ELEMENT_SET_NO": 999, "REV_AT_EPOCH": 388, "BSTAR": -0.027393, "MEAN_MOTION_DOT": -0.01961325, "MEAN_MOTION_DDOT": 0}, "tle": {"line1": "1 66629U 25271N   25344.50003471 -.01961325  00000+0 -27393-1 0  9997", "line2": "2 66629  53.1599 197.9794 0001242 109.0956  59.4348 15.59684437  3882"}}, "geometry": {"type": "Point", "coordinates": [-166.7980955940775, -4.486280887585821]}}, {"type": "Feature", "properties": {"norad_id": 66630, "name": "STARLINK-35949", "group": "last-30-days", "lat": -2.9514659844906586, "lon": -165.64637090075783, "alt_km": 393.69509557555466, "timestamp": "2025-12-10T18:56:58.833955+00:00", "meta": {"OBJECT_NAME": "STARLINK-35949", "OBJECT_ID": "2025-271P", "EPOCH": "2025-12-10T12:00:02.998944", "MEAN_MOTION": 15.59692202, "ECCENTRICITY": 0.0001095, "INCLINATION": 53.16, "RA_OF_ASC_NODE": 197.9741, "ARG_OF_PERICENTER": 101.6227, "MEAN_ANOMALY": 68.8239, "EPHEMERIS_TYPE": 0, "CLASSIFICATION_TYPE": "U", "NORAD_CAT_ID": 66630, "ELEMENT_SET_NO": 999, "REV_AT_EPOCH": 388, "BSTAR": -0.027588, "MEAN_MOTION_DOT": -0.01973985, "MEAN_MOTION_DDOT": 0}, "tle": {"line1": "1 66630U 25271P   25344.50003471 -.01973985  00000+0 -27588-1 0  9990", "line2": "2 66630  53.1600 197.9741 0001095 101.6227  68.8239 15.59692202  3886"}}, "geometry": {"type": "Point", "coordinates": [-165.64637090075783, -2.9514659844906586]}}, {"type": "Feature", "properties": {"norad_id": 66631, "name": "STARLINK-35965", "group": "last-30-days", "lat": -1.4208439642855377, "lon": -164.49968986290463, "alt_km": 393.5407847192355, "timestamp": "2025-12-10T18:56:58.833964+00:00", "meta": {"OBJECT_NAME": "STARLINK-35965", "OBJECT_ID": "2025-271Q", "EPOCH": "2025-12-10T12:00:02.998944", "MEAN_MOTION": 15.59679055, "ECCENTRICITY": 0.0001032, "INCLINATION": 53.1599, "RA_OF_ASC_NODE": 197.971, "ARG_OF_PERICENTER": 109.6097, "MEAN_ANOMALY": 62.7555, "EPHEMERIS_TYPE": 0, "CLASSIFICATION_TYPE": "U", "NORAD_CAT_ID": 66631, "ELEMENT_SET_NO": 999, "REV_AT_EPOCH": 388, "BSTAR": -0.027268, "MEAN_MOTION_DOT": -0.01952973, "MEAN_MOTION_DDOT": 0}, "tle": {"line1": "1 66631U 25271Q   25344.50003471 -.01952973  00000+0 -27268-1 0  9990", "line2": "2 66631  53.1599 197.9710 0001032 109.6097  62.7555 15.59679055  3889"}}, "geometry": {"type": "Point", "coordinates": [-164.49968986290463, -1.4208439642855377]}}, {"type": "Feature", "properties": {"norad_id": 66632, "name": "STARLINK-35973", "group": "last-30-days", "lat": 0.11456258007556507, "lon": -163.35238614529084, "alt_km": 393.32858277109153, "timestamp": "2025-12-10T18:56:58.833974+00:00", "meta": {"OBJECT_NAME": "STARLINK-35973", "OBJECT_ID": "2025-271R", "EPOCH": "2025-12-10T12:00:02.998944", "MEAN_MOTION": 15.59693271, "ECCENTRICITY": 0.0001229, "INCLINATION": 53.1599, "RA_OF_ASC_NODE": 197.9669, "ARG_OF_PERICENTER": 106.0135, "MEAN_ANOMALY": 68.2661, "EPHEMERIS_TYPE": 0, "CLASSIFICATION_TYPE": "U", "NORAD_CAT_ID": 66632, "ELEMENT_SET_NO": 999, "REV_AT_EPOCH": 382, "BSTAR": -0.027589, "MEAN_MOTION_DOT": -0.01974194, "MEAN_MOTION_DDOT": 0}, "tle": {"line1": "1 66632U 25271R   25344.50003471 -.01974194  00000+0 -27589-1 0  9996", "line2": "2 66632  53.1599 197.9669 0001229 106.0135  68.2661 15.59693271  3824"}}, "geometry": {"type": "Point", "coordinates": [-163.35238614529084, 0.11456258007556507]}}, {"type": "Feature", "properties": {"norad_id": 66633, "name": "STARLINK-35948", "group": "last-30-days", "lat": 1.64841621416215, "lon": -162.20697381584264, "alt_km": 393.0343645320818, "timestamp": "2025-12-10T18:56:58.833986+00:00", "meta": {"OBJECT_NAME": "STARLINK-35948", "OBJECT_ID": "2025-271S", "EPOCH": "2025-12-10T12:00:02.998944", "MEAN_MOTION": 15.59690991, "ECCENTRICITY": 0.0001211, "INCLINATION": 53.1599, "RA_OF_ASC_NODE": 197.9619, "ARG_OF_PERICENTER": 100.7202, "MEAN_ANOMALY": 75.4777, "EPHEMERIS_TYPE": 0, "CLASSIFICATION_TYPE": "U", "NORAD_CAT_ID": 66633, "ELEMENT_SET_NO": 999, "REV_AT_EPOCH": 388, "BSTAR": -0.02755, "MEAN_MOTION_DOT": -0.01971624, "MEAN_MOTION_DDOT": 0}, "tle": {"line1": "1 66633U 25271S   25344.50003471 -.01971624  00000+0 -27550-1 0  9990", "line2": "2 66633  53.1599 197.9619 0001211 100.7202  75.4777 15.59690991  3887"}}, "geometry": {"type": "Point", "coordinates": [-162.20697381584264, 1.64841621416215]}}, {"type": "Feature", "properties": {"norad_id": 66634, "name": "STARLINK-35967", "group": "last-30-days", "lat": 3.180526148470041, "lon": -161.05990453135522, "alt_km": 392.89635520548563, "timestamp": "2025-12-10T18:56:58.834010+00:00", "meta": {"OBJECT_NAME": "STARLINK-35967", "OBJECT_ID": "2025-271T", "EPOCH": "2025-12-10T12:00:02.998944", "MEAN_MOTION": 15.59691402, "ECCENTRICITY": 0.0001281, "INCLINATION": 53.1599, "RA_OF_ASC_NODE": 197.9576, "ARG_OF_PERICENTER": 108.0547, "MEAN_ANOMALY": 70.0581, "EPHEMERIS_TYPE": 0, "CLASSIFICATION_TYPE": "U", "NORAD_CAT_ID": 66634, "ELEMENT_SET_NO": 999, "REV_AT_EPOCH": 381, "BSTAR": -0.027519, "MEAN_MOTION_DOT": -0.01969733, "MEAN_MOTION_DDOT": 0}, "tle": {"line1": "1 66634U 25271T   25344.50003471 -.01969733  00000+0 -27519-1 0  9994", "line2": "2 66634  53.1599 197.9576 0001281 108.0547  70.0581 15.59691402  3815"}}, "geometry": {"type": "Point", "coordinates": [-161.05990453135522, 3.180526148470041]}}, {"type": "Feature", "properties": {"norad_id": 66635, "name": "STARLINK-35955", "group": "last-30-days", "lat": 4.711973870959205, "lon": -159.90820953514338, "alt_km": 392.63955857991186, "timestamp": "2025-12-10T18:56:58.834020+00:00", "meta": {"OBJECT_NAME": "STARLINK-35955", "OBJECT_ID": "2025-271U", "EPOCH": "2025-12-10T12:00:02.998944", "MEAN_MOTION": 15.59685372, "ECCENTRICITY": 0.000117, "INCLINATION": 53.1597, "RA_OF_ASC_NODE": 197.954, "ARG_OF_PERICENTER": 107.8576, "MEAN_ANOMALY": 72.1736, "EPHEMERIS_TYPE": 0, "CLASSIFICATION_TYPE": "U", "NORAD_CAT_ID": 66635, "ELEMENT_SET_NO": 999, "REV_AT_EPOCH": 388, "BSTAR": -0.027408, "MEAN_MOTION_DOT": -0.01962296, "MEAN_MOTION_DDOT": 0}, "tle": {"line1": "1 66635U 25271U   25344.50003471 -.01962296  00000+0 -27408-1 0  9999", "line2": "2 66635  53.1597 197.9540 0001170 107.8576  72.1736 15.59685372  3882"}}, "geometry": {"type": "Point", "coordinates": [-159.90820953514338, 4.711973870959205]}}, {"type": "Feature", "properties": {"norad_id": 66636, "name": "STARLINK-35968", "group": "last-30-days", "lat": 6.241825296482977, "lon": -158.75200833666017, "alt_km": 392.4163089891654, "timestamp": "2025-12-10T18:56:58.834030+00:00", "meta": {"OBJECT_NAME": "STARLINK-35968", "OBJECT_ID": "2025-271V", "EPOCH": "2025-12-10T12:00:02.998944", "MEAN_MOTION": 15.59689059, "ECCENTRICITY": 0.0001242, "INCLINATION": 53.1598, "RA_OF_ASC_NODE": 197.9496, "ARG_OF_PERICENTER": 108.6494, "MEAN_ANOMALY": 73.2967, "EPHEMERIS_TYPE": 0, "CLASSIFICATION_TYPE": "U", "NORAD_CAT_ID": 66636, "ELEMENT_SET_NO": 999, "REV_AT_EPOCH": 388, "BSTAR": -0.027468, "MEAN_MOTION_DOT": -0.01966369, "MEAN_MOTION_DDOT": 0}, "tle": {"line1": "1 66636U 25271V   25344.50003471 -.01966369  00000+0 -27468-1 0  9991", "line2": "2 66636  53.1598 197.9496 0001242 108.6494  73.2967 15.59689059  3886"}}, "geometry": {"type": "Point", "coordinates": [-158.75200833666017, 6.241825296482977]}}, {"type": "Feature", "properties": {"norad_id": 66637, "name": "STARLINK-35953", "group": "last-30-days", "lat": 7.770747659305194, "lon": -157.58704134718903, "alt_km": 392.09528530388616, "timestamp": "2025-12-10T18:56:58.834040+00:00", "meta": {"OBJECT_NAME": "STARLINK-35953", "OBJECT_ID": "2025-271W", "EPOCH": "2025-12-10T12:00:02.998944", "MEAN_MOTION": 15.59681846, "ECCENTRICITY": 0.0001053, "INCLINATION": 53.1598, "RA_OF_ASC_NODE": 197.9459, "ARG_OF_PERICENTER": 102.9795, "MEAN_ANOMALY": 80.8872, "EPHEMERIS_TYPE": 0, "CLASSIFICATION_TYPE": "U", "NORAD_CAT_ID": 66637, "ELEMENT_SET_NO": 999, "REV_AT_EPOCH": 388, "BSTAR": -0.027343, "MEAN_MOTION_DOT": -0.01957848, "MEAN_MOTION_DDOT": 0}, "tle": {"line1": "1 66637U 25271W   25344.50003471 -.01957848  00000+0 -27343-1 0  9996", "line2": "2 66637  53.1598 197.9459 0001053 102.9795  80.8872 15.59681846  3882"}}, "geometry": {"type": "Point", "coordinates": [-157.58704134718903, 7.770747659305194]}}, {"type": "Feature", "properties": {"norad_id": 66638, "name": "STARLINK-35972", "group": "last-30-days", "lat": 9.293552466987487, "lon": -156.41559845770132, "alt_km": 391.8464942568162, "timestamp": "2025-12-10T18:56:58.834049+00:00", "meta": {"OBJECT_NAME": "STARLINK-35972", "OBJECT_ID": "2025-271X", "EPOCH": "2025-12-10T12:00:02.998944", "MEAN_MOTION": 15.59680889, "ECCENTRICITY": 0.0001127, "INCLINATION": 53.1598, "RA_OF_ASC_NODE": 197.9424, "ARG_OF_PERICENTER": 102.6229, "MEAN_ANOMALY": 83.1592, "EPHEMERIS_TYPE": 0, "CLASSIFICATION_TYPE": "U", "NORAD_CAT_ID": 66638, "ELEMENT_SET_NO": 999, "REV_AT_EPOCH": 388, "BSTAR": -0.027301, "MEAN_MOTION_DOT": -0.0195524, "MEAN_MOTION_DDOT": 0}, "tle": {"line1": "1 66638U 25271X   25344.50003471 -.01955240  00000+0 -27301-1 0  9995", "line2": "2 66638  53.1598 197.9424 0001127 102.6229  83.1592 15.59680889  3887"}}, "geometry": {"type": "Point", "coordinates": [-156.41559845770132, 9.293552466987487]}}]}